ATLAS CENTAUR 2         
1 00694U 63047A   26009.15705258  .00001597  00000+0  18076-3 0  9995
2 00694  30.3561 168.2935 0548696 275.7117  78.1199 14.11883635123204
THOR AGENA D R/B        
1 00733U 64002A   26009.63275981  .00000238  00000+0  10197-3 0  9996
2 00733  99.1221  19.7602 0033824  70.9976 289.4867 14.33979620229834
SL-3 R/B                
1 00877U 64053B   26009.63192281  .00000331  00000+0  88636-4 0  9990
2 00877  65.0768 144.3719 0076216 311.1465  48.3074 14.61302221258168
SL-8 R/B                
1 02802U 67045B   26009.68276978  .00000341  00000+0  10187-3 0  9991
2 02802  74.0116  98.2861 0063031 120.3745 240.3665 14.45569478 80492
SL-8 R/B                
1 03230U 68040B   26009.60312970  .00003516  00000+0  26404-3 0  9994
2 03230  74.0314  74.3825 0026416 272.0717  87.7446 15.02768387 81139
OAO 2                   
1 03597U 68110A   26009.31496133  .00000270  00000+0  78066-4 0  9996
2 03597  34.9919 236.7178 0004798  80.2487 279.8746 14.47265036 10497
ISIS 1                  
1 03669U 69009A   26009.14637522  .00000359  00000+0  25314-3 0  9999
2 03669  88.4515 161.7999 1707555 209.3246 140.0436 11.30373903341809
SERT 2                  
1 04327U 70009A   26009.78917012  .00000042  00000+0  11415-3 0  9994
2 04327  99.2685 316.1292 0004459 324.8141  96.7373 13.58722387771899
SL-3 R/B                
1 05118U 71028B   26009.59649403  .00035241  00000+0  49188-3 0  9997
2 05118  81.2379 124.7530 0018300 140.7606 219.4975 15.56507155979467
ASTEX 1                 
1 05560U 71089A   26009.57232383  .00000669  00000+0  17062-3 0  9990
2 05560  92.7156 132.6273 0013446 286.5025  73.4704 14.50685450853737
SL-8 R/B                
1 05730U 71119B   26009.48153483  .00009019  00000+0  46867-3 0  9999
2 05730  73.8890 286.2667 0556783 264.9547  88.7860 14.36414568646982
OAO 3 (COPERNICUS)      
1 06153U 72065A   26009.46358914  .00000438  00000+0  94299-4 0  9993
2 06153  35.0056 274.7364 0006164  30.7371 135.8551 14.59937998837535
