CCSDS_OMM_VERS = 2.0
CREATION_DATE  = 
ORIGINATOR     = 

OBJECT_NAME    = ATLAS CENTAUR 2
OBJECT_ID      = 1963-047A
CENTER_NAME    = EARTH
REF_FRAME      = TEME
TIME_SYSTEM    = UTC
MEAN_ELEMENT_THEORY = SGP/SGP4

EPOCH          = 2026-01-09T03:46:09.342912
MEAN_MOTION    = 14.11883635
ECCENTRICITY   = .0548696
INCLINATION    = 30.3561
RA_OF_ASC_NODE = 168.2935
ARG_OF_PERICENTER = 275.7117
MEAN_ANOMALY   = 78.1199

EPHEMERIS_TYPE = 0
CLASSIFICATION_TYPE = U
NORAD_CAT_ID   = 694
ELEMENT_SET_NO = 999
REV_AT_EPOCH   = 12320
BSTAR          = .18076E-3
MEAN_MOTION_DOT = .1597E-4
MEAN_MOTION_DDOT = 0

CCSDS_OMM_VERS = 2.0
CREATION_DATE  = 
ORIGINATOR     = 

OBJECT_NAME    = THOR AGENA D R/B
OBJECT_ID      = 1964-002A
CENTER_NAME    = EARTH
REF_FRAME      = TEME
TIME_SYSTEM    = UTC
MEAN_ELEMENT_THEORY = SGP/SGP4

EPOCH          = 2026-01-09T15:11:10.447584
MEAN_MOTION    = 14.33979620
ECCENTRICITY   = .00338244
INCLINATION    = 99.1221
RA_OF_ASC_NODE = 19.7602
ARG_OF_PERICENTER = 70.9976
MEAN_ANOMALY   = 289.4867

EPHEMERIS_TYPE = 0
CLASSIFICATION_TYPE = U
NORAD_CAT_ID   = 733
ELEMENT_SET_NO = 999
REV_AT_EPOCH   = 22983
BSTAR          = .10196941E-3
MEAN_MOTION_DOT = .238E-5
MEAN_MOTION_DDOT = 0

CCSDS_OMM_VERS = 2.0
CREATION_DATE  = 
ORIGINATOR     = 

OBJECT_NAME    = SL-3 R/B
OBJECT_ID      = 1964-053B
CENTER_NAME    = EARTH
REF_FRAME      = TEME
TIME_SYSTEM    = UTC
MEAN_ELEMENT_THEORY = SGP/SGP4

EPOCH          = 2026-01-09T15:09:58.130784
MEAN_MOTION    = 14.61302221
ECCENTRICITY   = .00762165
INCLINATION    = 65.0768
RA_OF_ASC_NODE = 144.3719
ARG_OF_PERICENTER = 311.1465
MEAN_ANOMALY   = 48.3074

EPHEMERIS_TYPE = 0
CLASSIFICATION_TYPE = U
NORAD_CAT_ID   = 877
ELEMENT_SET_NO = 999
REV_AT_EPOCH   = 25816
BSTAR          = .88636207E-4
MEAN_MOTION_DOT = .331E-5
MEAN_MOTION_DDOT = 0

CCSDS_OMM_VERS = 2.0
CREATION_DATE  = 
ORIGINATOR     = 

OBJECT_NAME    = SL-8 R/B
OBJECT_ID      = 1967-045B
CENTER_NAME    = EARTH
REF_FRAME      = TEME
TIME_SYSTEM    = UTC
MEAN_ELEMENT_THEORY = SGP/SGP4

EPOCH          = 2026-01-09T16:23:11.308992
MEAN_MOTION    = 14.45569478
ECCENTRICITY   = .00630318
INCLINATION    = 74.0116
RA_OF_ASC_NODE = 98.2861
ARG_OF_PERICENTER = 120.3745
MEAN_ANOMALY   = 240.3665

EPHEMERIS_TYPE = 0
CLASSIFICATION_TYPE = U
NORAD_CAT_ID   = 2802
ELEMENT_SET_NO = 999
REV_AT_EPOCH   = 8049
BSTAR          = .10187269E-3
MEAN_MOTION_DOT = .341E-5
MEAN_MOTION_DDOT = 0

CCSDS_OMM_VERS = 2.0
CREATION_DATE  = 
ORIGINATOR     = 

OBJECT_NAME    = SL-8 R/B
OBJECT_ID      = 1968-040B
CENTER_NAME    = EARTH
REF_FRAME      = TEME
TIME_SYSTEM    = UTC
MEAN_ELEMENT_THEORY = SGP/SGP4

EPOCH          = 2026-01-09T14:28:30.406080
MEAN_MOTION    = 15.02768387
ECCENTRICITY   = .0026416
INCLINATION    = 74.0314
RA_OF_ASC_NODE = 74.3825
ARG_OF_PERICENTER = 272.0717
MEAN_ANOMALY   = 87.7446

EPHEMERIS_TYPE = 0
CLASSIFICATION_TYPE = U
NORAD_CAT_ID   = 3230
ELEMENT_SET_NO = 999
REV_AT_EPOCH   = 8113
BSTAR          = .26403778E-3
MEAN_MOTION_DOT = .3516E-4
MEAN_MOTION_DDOT = 0

CCSDS_OMM_VERS = 2.0
CREATION_DATE  = 
ORIGINATOR     = 

OBJECT_NAME    = OAO 2
OBJECT_ID      = 1968-110A
CENTER_NAME    = EARTH
REF_FRAME      = TEME
TIME_SYSTEM    = UTC
MEAN_ELEMENT_THEORY = SGP/SGP4

EPOCH          = 2026-01-09T07:33:32.658912
MEAN_MOTION    = 14.47265036
ECCENTRICITY   = .00047986
INCLINATION    = 34.9919
RA_OF_ASC_NODE = 236.7178
ARG_OF_PERICENTER = 80.2487
MEAN_ANOMALY   = 279.8746

EPHEMERIS_TYPE = 0
CLASSIFICATION_TYPE = U
NORAD_CAT_ID   = 3597
ELEMENT_SET_NO = 999
REV_AT_EPOCH   = 1049
BSTAR          = .78066105E-4
MEAN_MOTION_DOT = .27E-5
MEAN_MOTION_DDOT = 0

CCSDS_OMM_VERS = 2.0
CREATION_DATE  = 
ORIGINATOR     = 

OBJECT_NAME    = ISIS 1
OBJECT_ID      = 1969-009A
CENTER_NAME    = EARTH
REF_FRAME      = TEME
TIME_SYSTEM    = UTC
MEAN_ELEMENT_THEORY = SGP/SGP4

EPOCH          = 2026-01-09T03:30:46.819008
MEAN_MOTION    = 11.30373903
ECCENTRICITY   = .17075557
INCLINATION    = 88.4515
RA_OF_ASC_NODE = 161.7999
ARG_OF_PERICENTER = 209.3246
MEAN_ANOMALY   = 140.0436

EPHEMERIS_TYPE = 0
CLASSIFICATION_TYPE = U
NORAD_CAT_ID   = 3669
ELEMENT_SET_NO = 999
REV_AT_EPOCH   = 34180
BSTAR          = .25314439E-3
MEAN_MOTION_DOT = .359E-5
MEAN_MOTION_DDOT = 0

CCSDS_OMM_VERS = 2.0
CREATION_DATE  = 
ORIGINATOR     = 

OBJECT_NAME    = SERT 2
OBJECT_ID      = 1970-009A
CENTER_NAME    = EARTH
REF_FRAME      = TEME
TIME_SYSTEM    = UTC
MEAN_ELEMENT_THEORY = SGP/SGP4

EPOCH          = 2026-01-09T18:56:24.298368
MEAN_MOTION    = 13.58722387
ECCENTRICITY   = .00044599
INCLINATION    = 99.2685
RA_OF_ASC_NODE = 316.1292
ARG_OF_PERICENTER = 324.8141
MEAN_ANOMALY   = 96.7373

EPHEMERIS_TYPE = 0
CLASSIFICATION_TYPE = U
NORAD_CAT_ID   = 4327
ELEMENT_SET_NO = 999
REV_AT_EPOCH   = 77189
BSTAR          = .11414919E-3
MEAN_MOTION_DOT = .42E-6
MEAN_MOTION_DDOT = 0

CCSDS_OMM_VERS = 2.0
CREATION_DATE  = 
ORIGINATOR     = 

OBJECT_NAME    = SL-3 R/B
OBJECT_ID      = 1971-028B
CENTER_NAME    = EARTH
REF_FRAME      = TEME
TIME_SYSTEM    = UTC
MEAN_ELEMENT_THEORY = SGP/SGP4

EPOCH          = 2026-01-09T14:18:57.084192
MEAN_MOTION    = 15.56507155
ECCENTRICITY   = .00183001
INCLINATION    = 81.2379
RA_OF_ASC_NODE = 124.7530
ARG_OF_PERICENTER = 140.7606
MEAN_ANOMALY   = 219.4975

EPHEMERIS_TYPE = 0
CLASSIFICATION_TYPE = U
NORAD_CAT_ID   = 5118
ELEMENT_SET_NO = 999
REV_AT_EPOCH   = 97946
BSTAR          = .49187839E-3
MEAN_MOTION_DOT = .35241E-3
MEAN_MOTION_DDOT = 0

CCSDS_OMM_VERS = 2.0
CREATION_DATE  = 
ORIGINATOR     = 

OBJECT_NAME    = ASTEX 1
OBJECT_ID      = 1971-089A
CENTER_NAME    = EARTH
REF_FRAME      = TEME
TIME_SYSTEM    = UTC
MEAN_ELEMENT_THEORY = SGP/SGP4

EPOCH          = 2026-01-09T13:44:08.778912
MEAN_MOTION    = 14.50685450
ECCENTRICITY   = .0013446
INCLINATION    = 92.7156
RA_OF_ASC_NODE = 132.6273
ARG_OF_PERICENTER = 286.5025
MEAN_ANOMALY   = 73.4704

EPHEMERIS_TYPE = 0
CLASSIFICATION_TYPE = U
NORAD_CAT_ID   = 5560
ELEMENT_SET_NO = 999
REV_AT_EPOCH   = 85373
BSTAR          = .17062467E-3
MEAN_MOTION_DOT = .669E-5
MEAN_MOTION_DDOT = 0

CCSDS_OMM_VERS = 2.0
CREATION_DATE  = 
ORIGINATOR     = 

OBJECT_NAME    = SL-8 R/B
OBJECT_ID      = 1971-119B
CENTER_NAME    = EARTH
REF_FRAME      = TEME
TIME_SYSTEM    = UTC
MEAN_ELEMENT_THEORY = SGP/SGP4

EPOCH          = 2026-01-09T11:33:24.609312
MEAN_MOTION    = 14.36414568
ECCENTRICITY   = .05567832
INCLINATION    = 73.8890
RA_OF_ASC_NODE = 286.2667
ARG_OF_PERICENTER = 264.9547
MEAN_ANOMALY   = 88.7860

EPHEMERIS_TYPE = 0
CLASSIFICATION_TYPE = U
NORAD_CAT_ID   = 5730
ELEMENT_SET_NO = 999
REV_AT_EPOCH   = 64698
BSTAR          = .46866615E-3
MEAN_MOTION_DOT = .9019E-4
MEAN_MOTION_DDOT = 0

CCSDS_OMM_VERS = 2.0
CREATION_DATE  = 
ORIGINATOR     = 

OBJECT_NAME    = OAO 3 (COPERNICUS)
OBJECT_ID      = 1972-065A
CENTER_NAME    = EARTH
REF_FRAME      = TEME
TIME_SYSTEM    = UTC
MEAN_ELEMENT_THEORY = SGP/SGP4

EPOCH          = 2026-01-09T11:07:34.101696
MEAN_MOTION    = 14.59937998
ECCENTRICITY   = .0006164
INCLINATION    = 35.0056
RA_OF_ASC_NODE = 274.7364
ARG_OF_PERICENTER = 30.7371
MEAN_ANOMALY   = 135.8551

EPHEMERIS_TYPE = 0
CLASSIFICATION_TYPE = U
NORAD_CAT_ID   = 6153
ELEMENT_SET_NO = 999
REV_AT_EPOCH   = 83753
BSTAR          = .94299396E-4
MEAN_MOTION_DOT = .438E-5
MEAN_MOTION_DDOT = 0

